*******************************************************************************
Ephemeris / WWW_USER Thu May 23 08:25:20 2024 Pasadena, USA      / Horizons    
*******************************************************************************
Target body name: Hale-Bopp (C/1995 O1)           {source: JPL#226}
Center body name: Earth (399)                     {source: DE441}
Center-site name: Gemini South Obs., Cerro Pachon
*******************************************************************************
Start time      : A.D. 2018-Oct-02 22:53:00.0000 UT      
Stop  time      : A.D. 2018-Oct-03 10:10:00.0000 UT      
Step-size       : 1 minutes
*******************************************************************************
Target pole/equ : undefined
Target radii    : 30. km                                                       
Center geodetic : 289.2634, -30.2406227, 2.71233  {E-lon(deg),Lat(deg),Alt(km)}
Center cylindric: 289.2634,5517.21435,-3194.81213 {E-lon(deg),Dxy(km),Dz(km)}
Center pole/equ : ITRF93                          {East-longitude positive}
Center radii    : 6378.137, 6378.137, 6356.752 km {Equator_a, b, pole_c}       
Target primary  : Sun
Vis. interferer : MOON (R_eq= 1737.400) km        {source: DE441}
Rel. light bend : Sun                             {source: DE441}
Rel. lght bnd GM: 1.3271E+11 km^3/s^2                                          
Small-body perts: Yes                             {source: SB441-N16}
Atmos refraction: NO (AIRLESS)
RA format       : HMS
Time format     : CAL 
Calendar mode   : Mixed Julian/Gregorian
RTS-only print  : NO       
EOP file        : eop.240522.p240815                                           
EOP coverage    : DATA-BASED 1962-JAN-20 TO 2024-MAY-22. PREDICTS-> 2024-AUG-14
Units conversion: 1 au= 149597870.700 km, c= 299792.458 km/s, 1 day= 86400.0 s 
Table cut-offs 1: Elevation (-90.0deg=NO ),Airmass (>38.000=NO), Daylight (YES)
Table cut-offs 2: Solar elongation (  0.0,180.0=NO ),Local Hour Angle( 0.0=NO )
Table cut-offs 3: RA/DEC angular rate (     0.0=NO )                           
*******************************************************************************
Initial IAU76/J2000 heliocentric ecliptic osculating elements (au, days, deg.):
  EPOCH=  2459837.5 ! 2022-Sep-15.0000000 (TDB)    RMSW= n.a.                  
   EC= .9949810027633206   QR= .890537663547794    TP= 2450537.1349071441      
   OM= 282.7334213961641   W= 130.4146670659176    IN= 89.28759424740302       
  Equivalent ICRF heliocentric cartesian coordinates (au, au/d):
   X= 3.907631452214869E+00  Y=-1.373895334060347E+00  Z=-4.624358508575312E+01
  VX= 3.778244409519935E-04 VY=-5.803173067116371E-04 VZ=-3.255716412104052E-03
Comet physical (GM= km^3/s^2; RAD= km):                                        
   GM= n.a.                RAD= 30.                                            
   M1=  4.8      M2=  n.a.     k1=  4.     k2= n.a.     PHCOF= n.a.            
*******************************************************************************
 Date__(UT)__HR:MN     R.A._________(ICRF)_________DEC
******************************************************
$$SOE
 2018-Oct-03 05:05     22 55 28.849160 -86 36 58.04778
 2018-Oct-03 05:06     22 55 28.792023 -86 36 58.02220
 2018-Oct-03 05:07     22 55 28.734888 -86 36 57.99662
 2018-Oct-03 05:08     22 55 28.677757 -86 36 57.97103
 2018-Oct-03 05:09     22 55 28.620628 -86 36 57.94544
 2018-Oct-03 05:10     22 55 28.563502 -86 36 57.91984
 2018-Oct-03 05:11     22 55 28.506379 -86 36 57.89424
 2018-Oct-03 05:12     22 55 28.449258 -86 36 57.86864
 2018-Oct-03 05:13     22 55 28.392141 -86 36 57.84304
 2018-Oct-03 05:14     22 55 28.335026 -86 36 57.81743
 2018-Oct-03 05:15     22 55 28.277915 -86 36 57.79181
 2018-Oct-03 05:16     22 55 28.220806 -86 36 57.76620
 2018-Oct-03 05:17     22 55 28.163700 -86 36 57.74058
 2018-Oct-03 05:18     22 55 28.106597 -86 36 57.71495
 2018-Oct-03 05:19     22 55 28.049497 -86 36 57.68932
 2018-Oct-03 05:20     22 55 27.992400 -86 36 57.66369
 2018-Oct-03 05:21     22 55 27.935306 -86 36 57.63806
 2018-Oct-03 05:22     22 55 27.878215 -86 36 57.61242
 2018-Oct-03 05:23     22 55 27.821127 -86 36 57.58678
 2018-Oct-03 05:24     22 55 27.764042 -86 36 57.56113
 2018-Oct-03 05:25     22 55 27.706960 -86 36 57.53548
 2018-Oct-03 05:26     22 55 27.649881 -86 36 57.50983
 2018-Oct-03 05:27     22 55 27.592805 -86 36 57.48417
 2018-Oct-03 05:28     22 55 27.535732 -86 36 57.45851
 2018-Oct-03 05:29     22 55 27.478663 -86 36 57.43285
 2018-Oct-03 05:30     22 55 27.421596 -86 36 57.40718
 2018-Oct-03 05:31     22 55 27.364533 -86 36 57.38151
 2018-Oct-03 05:32     22 55 27.307472 -86 36 57.35583
 2018-Oct-03 05:33     22 55 27.250415 -86 36 57.33015
 2018-Oct-03 05:34     22 55 27.193361 -86 36 57.30447
 2018-Oct-03 05:35     22 55 27.136310 -86 36 57.27879
 2018-Oct-03 05:36     22 55 27.079262 -86 36 57.25310
 2018-Oct-03 05:37     22 55 27.022218 -86 36 57.22741
 2018-Oct-03 05:38     22 55 26.965177 -86 36 57.20171
 2018-Oct-03 05:39     22 55 26.908138 -86 36 57.17601
 2018-Oct-03 05:40     22 55 26.851104 -86 36 57.15031
 2018-Oct-03 05:41     22 55 26.794072 -86 36 57.12460
 2018-Oct-03 05:42     22 55 26.737044 -86 36 57.09889
 2018-Oct-03 05:43     22 55 26.680019 -86 36 57.07318
 2018-Oct-03 05:44     22 55 26.622997 -86 36 57.04747
 2018-Oct-03 05:45     22 55 26.565978 -86 36 57.02175
 2018-Oct-03 05:46     22 55 26.508963 -86 36 56.99602
 2018-Oct-03 05:47     22 55 26.451951 -86 36 56.97030
 2018-Oct-03 05:48     22 55 26.394943 -86 36 56.94457
 2018-Oct-03 05:49     22 55 26.337938 -86 36 56.91883
 2018-Oct-03 05:50     22 55 26.280936 -86 36 56.89310
 2018-Oct-03 05:51     22 55 26.223937 -86 36 56.86736
 2018-Oct-03 05:52     22 55 26.166942 -86 36 56.84161
 2018-Oct-03 05:53     22 55 26.109951 -86 36 56.81587
 2018-Oct-03 05:54     22 55 26.052963 -86 36 56.79012
 2018-Oct-03 05:55     22 55 25.995978 -86 36 56.76436
 2018-Oct-03 05:56     22 55 25.938996 -86 36 56.73861
 2018-Oct-03 05:57     22 55 25.882018 -86 36 56.71285
 2018-Oct-03 05:58     22 55 25.825044 -86 36 56.68709
 2018-Oct-03 05:59     22 55 25.768073 -86 36 56.66132
 2018-Oct-03 06:00     22 55 25.711106 -86 36 56.63555
 2018-Oct-03 06:01     22 55 25.654141 -86 36 56.60978
 2018-Oct-03 06:02     22 55 25.597181 -86 36 56.58400
 2018-Oct-03 06:03     22 55 25.540224 -86 36 56.55822
 2018-Oct-03 06:04     22 55 25.483271 -86 36 56.53244
 2018-Oct-03 06:05     22 55 25.426321 -86 36 56.50666
 2018-Oct-03 06:06     22 55 25.369374 -86 36 56.48087
 2018-Oct-03 06:07     22 55 25.312431 -86 36 56.45507
 2018-Oct-03 06:08     22 55 25.255492 -86 36 56.42928
 2018-Oct-03 06:09     22 55 25.198557 -86 36 56.40348
 2018-Oct-03 06:10  m  22 55 25.141625 -86 36 56.37768
 2018-Oct-03 06:11  m  22 55 25.084696 -86 36 56.35188
 2018-Oct-03 06:12  m  22 55 25.027771 -86 36 56.32607
 2018-Oct-03 06:13  m  22 55 24.970850 -86 36 56.30026
 2018-Oct-03 06:14  m  22 55 24.913933 -86 36 56.27445
 2018-Oct-03 06:15  m  22 55 24.857019 -86 36 56.24863
 2018-Oct-03 06:16  m  22 55 24.800108 -86 36 56.22281
 2018-Oct-03 06:17  m  22 55 24.743202 -86 36 56.19699
 2018-Oct-03 06:18  m  22 55 24.686299 -86 36 56.17116
 2018-Oct-03 06:19  m  22 55 24.629400 -86 36 56.14533
 2018-Oct-03 06:20  m  22 55 24.572505 -86 36 56.11950
 2018-Oct-03 06:21  m  22 55 24.515613 -86 36 56.09367
 2018-Oct-03 06:22  m  22 55 24.458725 -86 36 56.06783
 2018-Oct-03 06:23  m  22 55 24.401841 -86 36 56.04199
 2018-Oct-03 06:24  m  22 55 24.344960 -86 36 56.01614
 2018-Oct-03 06:25  m  22 55 24.288083 -86 36 55.99030
 2018-Oct-03 06:26  m  22 55 24.231210 -86 36 55.96445
 2018-Oct-03 06:27  m  22 55 24.174341 -86 36 55.93860
 2018-Oct-03 06:28  m  22 55 24.117476 -86 36 55.91274
 2018-Oct-03 06:29  m  22 55 24.060614 -86 36 55.88688
 2018-Oct-03 06:30  m  22 55 24.003756 -86 36 55.86102
 2018-Oct-03 06:31  m  22 55 23.946903 -86 36 55.83516
 2018-Oct-03 06:32  m  22 55 23.890052 -86 36 55.80929
 2018-Oct-03 06:33  m  22 55 23.833206 -86 36 55.78342
 2018-Oct-03 06:34  m  22 55 23.776364 -86 36 55.75755
 2018-Oct-03 06:35  m  22 55 23.719525 -86 36 55.73167
 2018-Oct-03 06:36  m  22 55 23.662691 -86 36 55.70579
 2018-Oct-03 06:37  m  22 55 23.605860 -86 36 55.67991
 2018-Oct-03 06:38  m  22 55 23.549033 -86 36 55.65403
 2018-Oct-03 06:39  m  22 55 23.492210 -86 36 55.62814
 2018-Oct-03 06:40  m  22 55 23.435391 -86 36 55.60225
 2018-Oct-03 06:41  m  22 55 23.378576 -86 36 55.57636
 2018-Oct-03 06:42  m  22 55 23.321764 -86 36 55.55047
 2018-Oct-03 06:43  m  22 55 23.264957 -86 36 55.52457
 2018-Oct-03 06:44  m  22 55 23.208154 -86 36 55.49867
 2018-Oct-03 06:45  m  22 55 23.151354 -86 36 55.47277
 2018-Oct-03 06:46  m  22 55 23.094559 -86 36 55.44686
 2018-Oct-03 06:47  m  22 55 23.037767 -86 36 55.42095
 2018-Oct-03 06:48  m  22 55 22.980980 -86 36 55.39504
 2018-Oct-03 06:49  m  22 55 22.924197 -86 36 55.36913
 2018-Oct-03 06:50  m  22 55 22.867417 -86 36 55.34321
 2018-Oct-03 06:51  m  22 55 22.810642 -86 36 55.31729
 2018-Oct-03 06:52  m  22 55 22.753870 -86 36 55.29137
 2018-Oct-03 06:53  m  22 55 22.697103 -86 36 55.26545
 2018-Oct-03 06:54  m  22 55 22.640339 -86 36 55.23952
 2018-Oct-03 06:55  m  22 55 22.583580 -86 36 55.21359
 2018-Oct-03 06:56  m  22 55 22.526825 -86 36 55.18766
 2018-Oct-03 06:57  m  22 55 22.470074 -86 36 55.16173
 2018-Oct-03 06:58  m  22 55 22.413327 -86 36 55.13579
 2018-Oct-03 06:59  m  22 55 22.356583 -86 36 55.10985
 2018-Oct-03 07:00  m  22 55 22.299845 -86 36 55.08391
 2018-Oct-03 07:01  m  22 55 22.243110 -86 36 55.05797
 2018-Oct-03 07:02  m  22 55 22.186379 -86 36 55.03202
 2018-Oct-03 07:03  m  22 55 22.129652 -86 36 55.00607
 2018-Oct-03 07:04  m  22 55 22.072930 -86 36 54.98012
 2018-Oct-03 07:05  m  22 55 22.016211 -86 36 54.95417
 2018-Oct-03 07:06  m  22 55 21.959497 -86 36 54.92821
 2018-Oct-03 07:07  m  22 55 21.902787 -86 36 54.90225
 2018-Oct-03 07:08  m  22 55 21.846081 -86 36 54.87629
